{
    "links": {
        "self": "http://www.neowsapp.com/rest/v1/neo/3841955?api_key=iIulBulltgU6a56xZRHN4H3l9WmuAYTsLGpBGhQ2"
    },
    "id": "3841955",
    "neo_reference_id": "3841955",
    "name": "(2019 JD8)",
    "designation": "2019 JD8",
    "nasa_jpl_url": "http://ssd.jpl.nasa.gov/sbdb.cgi?sstr=3841955",
    "absolute_magnitude_h": 24.7,
    "estimated_diameter": {
        "kilometers": {
            "estimated_diameter_min": 0.0305179233,
            "estimated_diameter_max": 0.0682401509
        },
        "meters": {
            "estimated_diameter_min": 30.5179232594,
            "estimated_diameter_max": 68.2401509401
        },
        "miles": {
            "estimated_diameter_min": 0.0189629525,
            "estimated_diameter_max": 0.0424024508
        },
        "feet": {
            "estimated_diameter_min": 100.1244233463,
            "estimated_diameter_max": 223.8850168104
        }
    },
    "is_potentially_hazardous_asteroid": false,
    "close_approach_data": [
        {
            "close_approach_date": "2019-05-26",
            "close_approach_date_full": "2019-May-26 20:31",
            "epoch_date_close_approach": 1558902660000,
            "relative_velocity": {
                "kilometers_per_second": "14.8069658743",
                "kilometers_per_hour": "53305.0771476434",
                "miles_per_hour": "33121.7019643232"
            },
            "miss_distance": {
                "astronomical": "0.037780435",
                "lunar": "14.696589215",
                "kilometers": "5651872.60367345",
                "miles": "3511910.78645561"
            },
            "orbiting_body": "Earth"
        }
    ],
    "orbital_data": {
        "orbit_id": "2",
        "orbit_determination_date": "2019-07-09 05:46:57",
        "first_observation_date": "2019-05-11",
        "last_observation_date": "2019-05-17",
        "data_arc_in_days": 6,
        "observations_used": 21,
        "orbit_uncertainty": "9",
        "minimum_orbit_intersection": ".00315742",
        "jupiter_tisserand_invariant": "3.042",
        "epoch_osculation": "2458616.5",
        "eccentricity": ".6624573290041662",
        "semi_major_axis": "2.631347933122161",
        "inclination": "2.705706400765402",
        "ascending_node_longitude": "73.04747057544196",
        "orbital_period": "1559.070816805875",
        "perihelion_distance": ".8881922096654209",
        "perihelion_argument": "222.5586680180737",
        "aphelion_distance": "4.374503656578901",
        "perihelion_time": "2458665.743534552266",
        "mean_anomaly": "348.6293346987694",
        "mean_motion": ".230906765824496",
        "equinox": "J2000",
        "orbit_class": {
            "orbit_class_type": "APO",
            "orbit_class_description": "Near-Earth asteroid orbits which cross the Earth’s orbit similar to that of 1862 Apollo",
            "orbit_class_range": "a (semi-major axis) > 1.0 AU; q (perihelion) < 1.017 AU"
        }
    },
    "is_sentry_object": false
}